*******************************************************************************
Ephemeris / WWW_USER Mon Mar 24 09:32:18 2025 Pasadena, USA      / Horizons    
*******************************************************************************
Target body name: (2018 KH3)                      {source: JPL#10}
Center body name: Earth (399)                     {source: DE441}
Center-site name: Mauna Kea
*******************************************************************************
Start time      : A.D. 2019-Jan-22 04:17:00.0000 UT      
Stop  time      : A.D. 2019-Jan-22 16:49:00.0000 UT      
Step-size       : 1 minutes
*******************************************************************************
Target pole/equ : undefined
Target radii    : undefined                                                    
Center geodetic : 204.5278, 19.8260847, 4.21024   {E-lon(deg),Lat(deg),Alt(km)}
Center cylindric: 204.5278, 6006.35451, 2151.0229 {E-lon(deg),Dxy(km),Dz(km)}
Center pole/equ : ITRF93                          {East-longitude positive}
Center radii    : 6378.137, 6378.137, 6356.752 km {Equator_a, b, pole_c}       
Target primary  : Sun
Vis. interferer : MOON (R_eq= 1737.400) km        {source: DE441}
Rel. light bend : Sun                             {source: DE441}
Rel. lght bnd GM: 1.3271E+11 km^3/s^2                                          
Small-body perts: Yes                             {source: SB441-N16}
Atmos refraction: NO (AIRLESS)
RA format       : HMS
Time format     : CAL 
Calendar mode   : Mixed Julian/Gregorian
RTS-only print  : NO       
EOP file        : eop.250321.p250617                                           
EOP coverage    : DATA-BASED 1962-JAN-20 TO 2025-MAR-21. PREDICTS-> 2025-JUN-16
Units conversion: 1 au= 149597870.700 km, c= 299792.458 km/s, 1 day= 86400.0 s 
Table cut-offs 1: Elevation (-90.0deg=NO ),Airmass (>38.000=NO), Daylight (YES)
Table cut-offs 2: Solar elongation (  0.0,180.0=NO ),Local Hour Angle( 0.0=NO )
Table cut-offs 3: RA/DEC angular rate (     0.0=NO )                           
*******************************************************************************
Initial IAU76/J2000 heliocentric ecliptic osculating elements (au, days, deg.):
  EPOCH=  2458288.5 ! 2018-Jun-19.00 (TDB)         Residual RMS= .22282        
   EC= .960925581819226    QR= 3.698978437965829   TP= 2457875.4618278281      
   OM= 293.0370088641419   W=  320.1514802298502   IN= 46.86534913190896       
  Equivalent ICRF heliocentric cartesian coordinates (au, au/d):
   X= 3.123713088662113E+00  Y=-4.022617727101489E+00  Z=-9.776572180429732E-02
  VX= 7.160289219203867E-03 VY=-1.601856640773144E-03 VZ= 7.695430476273978E-03
Asteroid physical parameters (km, seconds, rotational period in hours):        
   GM= n.a.                RAD= n.a.               ROTPER= n.a.                
   H= 13.69                G= .150                 B-V= n.a.                   
                           ALBEDO= n.a.            STYP= n.a.                  
*******************************************************************************
 Date__(UT)__HR:MN     R.A._________(ICRF)_________DEC
******************************************************
$$SOE
 2019-Jan-22 06:20  m  21 01 49.193356 +09 48 36.83672
 2019-Jan-22 06:21  m  21 01 49.220963 +09 48 37.02300
 2019-Jan-22 06:22  m  21 01 49.248571 +09 48 37.20928
 2019-Jan-22 06:23  m  21 01 49.276181 +09 48 37.39557
 2019-Jan-22 06:24  m  21 01 49.303793 +09 48 37.58186
 2019-Jan-22 06:25  m  21 01 49.331405 +09 48 37.76815
 2019-Jan-22 06:26  m  21 01 49.359020 +09 48 37.95444
 2019-Jan-22 06:27  m  21 01 49.386635 +09 48 38.14074
 2019-Jan-22 06:28  m  21 01 49.414252 +09 48 38.32704
 2019-Jan-22 06:29  m  21 01 49.441871 +09 48 38.51334
 2019-Jan-22 06:30  m  21 01 49.469491 +09 48 38.69964
 2019-Jan-22 06:31  m  21 01 49.497112 +09 48 38.88595
 2019-Jan-22 06:32  m  21 01 49.524735 +09 48 39.07226
 2019-Jan-22 06:33  m  21 01 49.552359 +09 48 39.25857
 2019-Jan-22 06:34  m  21 01 49.579985 +09 48 39.44488
 2019-Jan-22 06:35  m  21 01 49.607612 +09 48 39.63120
 2019-Jan-22 06:36  m  21 01 49.635240 +09 48 39.81752
 2019-Jan-22 06:37  m  21 01 49.662870 +09 48 40.00384
 2019-Jan-22 06:38  m  21 01 49.690501 +09 48 40.19017
 2019-Jan-22 06:39  m  21 01 49.718134 +09 48 40.37650
 2019-Jan-22 06:40  m  21 01 49.745768 +09 48 40.56283
 2019-Jan-22 06:41  m  21 01 49.773404 +09 48 40.74916
 2019-Jan-22 06:42  m  21 01 49.801041 +09 48 40.93550
 2019-Jan-22 06:43  m  21 01 49.828679 +09 48 41.12184
 2019-Jan-22 06:44  m  21 01 49.856319 +09 48 41.30818
 2019-Jan-22 06:45  m  21 01 49.883960 +09 48 41.49453
 2019-Jan-22 06:46  m  21 01 49.911602 +09 48 41.68088
 2019-Jan-22 06:47  m  21 01 49.939246 +09 48 41.86723
 2019-Jan-22 06:48  m  21 01 49.966892 +09 48 42.05358
 2019-Jan-22 06:49  m  21 01 49.994538 +09 48 42.23994
 2019-Jan-22 06:50  m  21 01 50.022186 +09 48 42.42630
 2019-Jan-22 06:51  m  21 01 50.049836 +09 48 42.61266
 2019-Jan-22 06:52  m  21 01 50.077487 +09 48 42.79903
 2019-Jan-22 06:53  m  21 01 50.105139 +09 48 42.98540
 2019-Jan-22 06:54  m  21 01 50.132792 +09 48 43.17177
 2019-Jan-22 06:55  m  21 01 50.160447 +09 48 43.35814
 2019-Jan-22 06:56  m  21 01 50.188104 +09 48 43.54452
 2019-Jan-22 06:57  m  21 01 50.215761 +09 48 43.73090
 2019-Jan-22 06:58  m  21 01 50.243420 +09 48 43.91728
 2019-Jan-22 06:59  m  21 01 50.271081 +09 48 44.10367
 2019-Jan-22 07:00  m  21 01 50.298742 +09 48 44.29006
 2019-Jan-22 07:01  m  21 01 50.326405 +09 48 44.47646
 2019-Jan-22 07:02  m  21 01 50.354070 +09 48 44.66285
 2019-Jan-22 07:03  m  21 01 50.381736 +09 48 44.84925
 2019-Jan-22 07:04  m  21 01 50.409403 +09 48 45.03565
 2019-Jan-22 07:05  m  21 01 50.437071 +09 48 45.22206
 2019-Jan-22 07:06  m  21 01 50.464741 +09 48 45.40847
 2019-Jan-22 07:07  m  21 01 50.492412 +09 48 45.59488
 2019-Jan-22 07:08  m  21 01 50.520085 +09 48 45.78130
 2019-Jan-22 07:09  m  21 01 50.547759 +09 48 45.96771
 2019-Jan-22 07:10  m  21 01 50.575434 +09 48 46.15414
 2019-Jan-22 07:11  m  21 01 50.603110 +09 48 46.34056
 2019-Jan-22 07:12  m  21 01 50.630788 +09 48 46.52699
 2019-Jan-22 07:13  m  21 01 50.658467 +09 48 46.71342
 2019-Jan-22 07:14  m  21 01 50.686148 +09 48 46.89986
 2019-Jan-22 07:15  m  21 01 50.713830 +09 48 47.08629
 2019-Jan-22 07:16  m  21 01 50.741513 +09 48 47.27274
 2019-Jan-22 07:17  m  21 01 50.769197 +09 48 47.45918
 2019-Jan-22 07:18  m  21 01 50.796883 +09 48 47.64563
 2019-Jan-22 07:19  m  21 01 50.824570 +09 48 47.83208
 2019-Jan-22 07:20  m  21 01 50.852258 +09 48 48.01854
 2019-Jan-22 07:21  m  21 01 50.879948 +09 48 48.20499
 2019-Jan-22 07:22  m  21 01 50.907639 +09 48 48.39146
 2019-Jan-22 07:23  m  21 01 50.935331 +09 48 48.57792
 2019-Jan-22 07:24  m  21 01 50.963024 +09 48 48.76439
 2019-Jan-22 07:25  m  21 01 50.990719 +09 48 48.95086
 2019-Jan-22 07:26  m  21 01 51.018415 +09 48 49.13734
 2019-Jan-22 07:27  m  21 01 51.046112 +09 48 49.32382
 2019-Jan-22 07:28  m  21 01 51.073811 +09 48 49.51030
 2019-Jan-22 07:29  m  21 01 51.101511 +09 48 49.69679
 2019-Jan-22 07:30  m  21 01 51.129212 +09 48 49.88328
 2019-Jan-22 07:31  m  21 01 51.156914 +09 48 50.06977
 2019-Jan-22 07:32  m  21 01 51.184618 +09 48 50.25627
 2019-Jan-22 07:33  m  21 01 51.212322 +09 48 50.44277
 2019-Jan-22 07:34  m  21 01 51.240028 +09 48 50.62927
 2019-Jan-22 07:35  m  21 01 51.267736 +09 48 50.81578
 2019-Jan-22 07:36  m  21 01 51.295444 +09 48 51.00229
 2019-Jan-22 07:37  m  21 01 51.323154 +09 48 51.18880
 2019-Jan-22 07:38  m  21 01 51.350865 +09 48 51.37532
 2019-Jan-22 07:39  m  21 01 51.378578 +09 48 51.56185
 2019-Jan-22 07:40  m  21 01 51.406291 +09 48 51.74837
 2019-Jan-22 07:41  m  21 01 51.434006 +09 48 51.93490
 2019-Jan-22 07:42  m  21 01 51.461722 +09 48 52.12143
 2019-Jan-22 07:43  m  21 01 51.489439 +09 48 52.30797
 2019-Jan-22 07:44  m  21 01 51.517157 +09 48 52.49451
 2019-Jan-22 07:45  m  21 01 51.544877 +09 48 52.68106
 2019-Jan-22 07:46  m  21 01 51.572598 +09 48 52.86760
 2019-Jan-22 07:47  m  21 01 51.600320 +09 48 53.05416
 2019-Jan-22 07:48  m  21 01 51.628043 +09 48 53.24071
 2019-Jan-22 07:49  m  21 01 51.655767 +09 48 53.42727
 2019-Jan-22 07:50  m  21 01 51.683493 +09 48 53.61383
 2019-Jan-22 07:51  m  21 01 51.711220 +09 48 53.80040
 2019-Jan-22 07:52  m  21 01 51.738948 +09 48 53.98697
 2019-Jan-22 07:53  m  21 01 51.766677 +09 48 54.17355
 2019-Jan-22 07:54  m  21 01 51.794407 +09 48 54.36012
 2019-Jan-22 07:55  m  21 01 51.822139 +09 48 54.54671
 2019-Jan-22 07:56  m  21 01 51.849871 +09 48 54.73329
 2019-Jan-22 07:57  m  21 01 51.877605 +09 48 54.91988
 2019-Jan-22 07:58  m  21 01 51.905340 +09 48 55.10648
 2019-Jan-22 07:59  m  21 01 51.933076 +09 48 55.29308
 2019-Jan-22 08:00  m  21 01 51.960813 +09 48 55.47968
 2019-Jan-22 08:01  m  21 01 51.988552 +09 48 55.66628
 2019-Jan-22 08:02  m  21 01 52.016291 +09 48 55.85289
 2019-Jan-22 08:03  m  21 01 52.044032 +09 48 56.03951
 2019-Jan-22 08:04  m  21 01 52.071774 +09 48 56.22612
 2019-Jan-22 08:05  m  21 01 52.099517 +09 48 56.41275
 2019-Jan-22 08:06  m  21 01 52.127261 +09 48 56.59937
 2019-Jan-22 08:07  m  21 01 52.155006 +09 48 56.78600
 2019-Jan-22 08:08  m  21 01 52.182752 +09 48 56.97264
 2019-Jan-22 08:09  m  21 01 52.210500 +09 48 57.15927
 2019-Jan-22 08:10  m  21 01 52.238248 +09 48 57.34592
 2019-Jan-22 08:11  m  21 01 52.265998 +09 48 57.53256
 2019-Jan-22 08:12  m  21 01 52.293748 +09 48 57.71921
 2019-Jan-22 08:13  m  21 01 52.321500 +09 48 57.90587
 2019-Jan-22 08:14  m  21 01 52.349253 +09 48 58.09252
 2019-Jan-22 08:15  m  21 01 52.377007 +09 48 58.27919
 2019-Jan-22 08:16  m  21 01 52.404762 +09 48 58.46585
 2019-Jan-22 08:17  m  21 01 52.432518 +09 48 58.65252
 2019-Jan-22 08:18  m  21 01 52.460275 +09 48 58.83920
 2019-Jan-22 08:19  m  21 01 52.488033 +09 48 59.02588
 2019-Jan-22 08:20  m  21 01 52.515793 +09 48 59.21256
 2019-Jan-22 08:21  m  21 01 52.543553 +09 48 59.39925
 2019-Jan-22 08:22  m  21 01 52.571315 +09 48 59.58594
